[{"OBJECT_NAME":"STARLINK-1605","OBJECT_ID":"2020-057G","EPOCH":"2024-01-02T22:28:46.910784","MEAN_MOTION":15.06406736,"ECCENTRICITY":0.000138,"INCLINATION":53.053,"RA_OF_ASC_NODE":253.383,"ARG_OF_PERICENTER":96.5787,"MEAN_ANOMALY":263.5359,"EPHEMERIS_TYPE":0,"CLASSIFICATION_TYPE":"U","NORAD_CAT_ID":46123,"ELEMENT_SET_NO":999,"REV_AT_EPOCH":18781,"BSTAR":0.00025993,"MEAN_MOTION_DOT":3.593e-5,"MEAN_MOTION_DDOT":0},{"OBJECT_NAME":"STARLINK-1614","OBJECT_ID":"2020-057H","EPOCH":"2024-01-03T01:50:28.048992","MEAN_MOTION":15.0641613,"ECCENTRICITY":0.000147,"INCLINATION":53.0556,"RA_OF_ASC_NODE":252.7552,"ARG_OF_PERICENTER":88.2592,"MEAN_ANOMALY":271.8565,"EPHEMERIS_TYPE":0,"CLASSIFICATION_TYPE":"U","NORAD_CAT_ID":46124,"ELEMENT_SET_NO":999,"REV_AT_EPOCH":18722,"BSTAR":0.00012006,"MEAN_MOTION_DOT":1.508e-5,"MEAN_MOTION_DDOT":0},{"OBJECT_NAME":"STARLINK-1618","OBJECT_ID":"2020-057J","EPOCH":"2024-01-02T04:41:56.057280","MEAN_MOTION":15.06403876,"ECCENTRICITY":0.0001295,"INCLINATION":53.054,"RA_OF_ASC_NODE":296.7108,"ARG_OF_PERICENTER":90.9958,"MEAN_ANOMALY":269.118,"EPHEMERIS_TYPE":0,"CLASSIFICATION_TYPE":"U","NORAD_CAT_ID":46125,"ELEMENT_SET_NO":999,"REV_AT_EPOCH":18712,"BSTAR":0.00059625,"MEAN_MOTION_DOT":8.612e-5,"MEAN_MOTION_DDOT":0},{"OBJECT_NAME":"STARLINK-1619","OBJECT_ID":"2020-057K","EPOCH":"2024-01-03T01:14:38.259744","MEAN_MOTION":15.08067674,"ECCENTRICITY":0.0001321,"INCLINATION":53.0543,"RA_OF_ASC_NODE":292.3731,"ARG_OF_PERICENTER":95,"MEAN_ANOMALY":265.1141,"EPHEMERIS_TYPE":0,"CLASSIFICATION_TYPE":"U","NORAD_CAT_ID":46126,"ELEMENT_SET_NO":999,"REV_AT_EPOCH":18666,"BSTAR":0.00098389,"MEAN_MOTION_DOT":0.0001508,"MEAN_MOTION_DDOT":0},{"OBJECT_NAME":"STARLINK-1621","OBJECT_ID":"2020-057L","EPOCH":"2024-01-03T03:44:35.023488","MEAN_MOTION":15.06434728,"ECCENTRICITY":0.0001414,"INCLINATION":53.0538,"RA_OF_ASC_NODE":272.3991,"ARG_OF_PERICENTER":89.0705,"MEAN_ANOMALY":271.0446,"EPHEMERIS_TYPE":0,"CLASSIFICATION_TYPE":"U","NORAD_CAT_ID":46127,"ELEMENT_SET_NO":999,"REV_AT_EPOCH":18695,"BSTAR":0.00077403,"MEAN_MOTION_DOT":0.00011277,"MEAN_MOTION_DDOT":0},{"OBJECT_NAME":"STARLINK-1622","OBJECT_ID":"2020-057M","EPOCH":"2024-01-03T02:48:51.046272","MEAN_MOTION":15.0641509,"ECCENTRICITY":0.0001546,"INCLINATION":53.0538,"RA_OF_ASC_NODE":252.5747,"ARG_OF_PERICENTER":102.0526,"MEAN_ANOMALY":258.0636,"EPHEMERIS_TYPE":0,"CLASSIFICATION_TYPE":"U","NORAD_CAT_ID":46128,"ELEMENT_SET_NO":999,"REV_AT_EPOCH":18722,"BSTAR":0.00021454,"MEAN_MOTION_DOT":2.917e-5,"MEAN_MOTION_DDOT":0},{"OBJECT_NAME":"STARLINK-1623","OBJECT_ID":"2020-057N","EPOCH":"2024-01-03T02:11:42.483552","MEAN_MOTION":15.06412061,"ECCENTRICITY":0.0001507,"INCLINATION":53.0532,"RA_OF_ASC_NODE":252.6903,"ARG_OF_PERICENTER":83.1457,"MEAN_ANOMALY":276.9704,"EPHEMERIS_TYPE":0,"CLASSIFICATION_TYPE":"U","NORAD_CAT_ID":46129,"ELEMENT_SET_NO":999,"REV_AT_EPOCH":18722,"BSTAR":0.00040477,"MEAN_MOTION_DOT":5.755e-5,"MEAN_MOTION_DDOT":0},{"OBJECT_NAME":"STARLINK-1624","OBJECT_ID":"2020-057P","EPOCH":"2024-01-02T22:12:51.354432","MEAN_MOTION":15.06407695,"ECCENTRICITY":0.0001368,"INCLINATION":53.0543,"RA_OF_ASC_NODE":253.432,"ARG_OF_PERICENTER":97.1065,"MEAN_ANOMALY":263.008,"EPHEMERIS_TYPE":0,"CLASSIFICATION_TYPE":"U","NORAD_CAT_ID":46130,"ELEMENT_SET_NO":999,"REV_AT_EPOCH":18719,"BSTAR":0.00012926,"MEAN_MOTION_DOT":1.645e-5,"MEAN_MOTION_DDOT":0},{"OBJECT_NAME":"STARLINK-1625","OBJECT_ID":"2020-057Q","EPOCH":"2024-01-03T00:06:58.541472","MEAN_MOTION":15.06418146,"ECCENTRICITY":0.000133,"INCLINATION":53.054,"RA_OF_ASC_NODE":273.0796,"ARG_OF_PERICENTER":83.3394,"MEAN_ANOMALY":276.7746,"EPHEMERIS_TYPE":0,"CLASSIFICATION_TYPE":"U","NORAD_CAT_ID":46131,"ELEMENT_SET_NO":999,"REV_AT_EPOCH":18692,"BSTAR":0.00052227,"MEAN_MOTION_DOT":7.51e-5,"MEAN_MOTION_DDOT":0},{"OBJECT_NAME":"STARLINK-1630","OBJECT_ID":"2020-057R","EPOCH":"2024-01-03T02:38:13.917984","MEAN_MOTION":15.0642526,"ECCENTRICITY":0.0001267,"INCLINATION":53.0538,"RA_OF_ASC_NODE":292.6076,"ARG_OF_PERICENTER":96.5223,"MEAN_ANOMALY":263.5911,"EPHEMERIS_TYPE":0,"CLASSIFICATION_TYPE":"U","NORAD_CAT_ID":46132,"ELEMENT_SET_NO":999,"REV_AT_EPOCH":18666,"BSTAR":0.0006877,"MEAN_MOTION_DOT":9.983e-5,"MEAN_MOTION_DDOT":0},{"OBJECT_NAME":"STARLINK-1637","OBJECT_ID":"2020-057S","EPOCH":"2024-01-03T02:38:14.486496","MEAN_MOTION":15.064131,"ECCENTRICITY":0.0001558,"INCLINATION":53.0521,"RA_OF_ASC_NODE":252.6028,"ARG_OF_PERICENTER":86.1963,"MEAN_ANOMALY":273.9204,"EPHEMERIS_TYPE":0,"CLASSIFICATION_TYPE":"U","NORAD_CAT_ID":46133,"ELEMENT_SET_NO":999,"REV_AT_EPOCH":18722,"BSTAR":0.00027401,"MEAN_MOTION_DOT":3.804e-5,"MEAN_MOTION_DDOT":0},{"OBJECT_NAME":"STARLINK-1639","OBJECT_ID":"2020-057U","EPOCH":"2024-01-03T01:29:13.899552","MEAN_MOTION":15.06417933,"ECCENTRICITY":0.0001364,"INCLINATION":53.0528,"RA_OF_ASC_NODE":252.822,"ARG_OF_PERICENTER":94.7306,"MEAN_ANOMALY":265.3839,"EPHEMERIS_TYPE":0,"CLASSIFICATION_TYPE":"U","NORAD_CAT_ID":46135,"ELEMENT_SET_NO":999,"REV_AT_EPOCH":18721,"BSTAR":0.00029499,"MEAN_MOTION_DOT":4.117e-5,"MEAN_MOTION_DDOT":0},{"OBJECT_NAME":"STARLINK-1643","OBJECT_ID":"2020-057V","EPOCH":"2024-01-02T21:58:16.372128","MEAN_MOTION":15.06419426,"ECCENTRICITY":0.0001399,"INCLINATION":53.0538,"RA_OF_ASC_NODE":283.5184,"ARG_OF_PERICENTER":90.5001,"MEAN_ANOMALY":269.6148,"EPHEMERIS_TYPE":0,"CLASSIFICATION_TYPE":"U","NORAD_CAT_ID":46136,"ELEMENT_SET_NO":999,"REV_AT_EPOCH":18611,"BSTAR":0.00044531,"MEAN_MOTION_DOT":6.361e-5,"MEAN_MOTION_DDOT":0},{"OBJECT_NAME":"STARLINK-1586","OBJECT_ID":"2020-057W","EPOCH":"2024-01-02T22:20:49.197408","MEAN_MOTION":15.06411439,"ECCENTRICITY":0.0001142,"INCLINATION":53.0524,"RA_OF_ASC_NODE":273.4062,"ARG_OF_PERICENTER":105.3092,"MEAN_ANOMALY":254.8023,"EPHEMERIS_TYPE":0,"CLASSIFICATION_TYPE":"U","NORAD_CAT_ID":46137,"ELEMENT_SET_NO":999,"REV_AT_EPOCH":18625,"BSTAR":0.00055865,"MEAN_MOTION_DOT":8.052e-5,"MEAN_MOTION_DDOT":0},{"OBJECT_NAME":"STARLINK-1590","OBJECT_ID":"2020-057X","EPOCH":"2024-01-02T04:45:33.296256","MEAN_MOTION":15.06755364,"ECCENTRICITY":0.0001742,"INCLINATION":53.054,"RA_OF_ASC_NODE":296.6884,"ARG_OF_PERICENTER":116.8399,"MEAN_ANOMALY":243.2769,"EPHEMERIS_TYPE":0,"CLASSIFICATION_TYPE":"U","NORAD_CAT_ID":46138,"ELEMENT_SET_NO":999,"REV_AT_EPOCH":18652,"BSTAR":0.0013411,"MEAN_MOTION_DOT":0.00019944,"MEAN_MOTION_DDOT":0},{"OBJECT_NAME":"STARLINK-1594","OBJECT_ID":"2020-057Z","EPOCH":"2024-01-02T22:55:19.223040","MEAN_MOTION":15.06417168,"ECCENTRICITY":0.0001533,"INCLINATION":53.0531,"RA_OF_ASC_NODE":253.3022,"ARG_OF_PERICENTER":78.8454,"MEAN_ANOMALY":281.2707,"EPHEMERIS_TYPE":0,"CLASSIFICATION_TYPE":"U","NORAD_CAT_ID":46140,"ELEMENT_SET_NO":999,"REV_AT_EPOCH":18720,"BSTAR":0.00038434,"MEAN_MOTION_DOT":5.45e-5,"MEAN_MOTION_DDOT":0},{"OBJECT_NAME":"STARLINK-1596","OBJECT_ID":"2020-057AA","EPOCH":"2024-01-03T01:34:32.455488","MEAN_MOTION":15.06416721,"ECCENTRICITY":0.0001381,"INCLINATION":53.0534,"RA_OF_ASC_NODE":252.8,"ARG_OF_PERICENTER":98.8457,"MEAN_ANOMALY":261.2688,"EPHEMERIS_TYPE":0,"CLASSIFICATION_TYPE":"U","NORAD_CAT_ID":46141,"ELEMENT_SET_NO":999,"REV_AT_EPOCH":18721,"BSTAR":0.00028595,"MEAN_MOTION_DOT":3.982e-5,"MEAN_MOTION_DDOT":0}]
