STARLINK-1605           
1 46123U 20057G   24002.93665406  .00003593  00000+0  25993-3 0  9997
2 46123  53.0530 253.3830 0001380  96.5787 263.5359 15.06406736187818
STARLINK-1614           
1 46124U 20057H   24003.07671353  .00001508  00000+0  12006-3 0  9997
2 46124  53.0556 252.7552 0001470  88.2592 271.8565 15.06416130187228
STARLINK-1618           
1 46125U 20057J   24002.19578770  .00008612  00000+0  59625-3 0  9990
2 46125  53.0540 296.7108 0001295  90.9958 269.1180 15.06403876187123
STARLINK-1619           
1 46126U 20057K   24003.05183171  .00015080  00000+0  98389-3 0  9991
2 46126  53.0543 292.3731 0001321  95.0000 265.1141 15.08067674186660
STARLINK-1621           
1 46127U 20057L   24003.15596092  .00011277  00000+0  77403-3 0  9991
2 46127  53.0538 272.3991 0001414  89.0705 271.0446 15.06434728186951
STARLINK-1622           
1 46128U 20057M   24003.11725748  .00002917  00000+0  21454-3 0  9996
2 46128  53.0538 252.5747 0001546 102.0526 258.0636 15.06415090187222
STARLINK-1623           
1 46129U 20057N   24003.09146393  .00005755  00000+0  40477-3 0  9996
2 46129  53.0532 252.6903 0001507  83.1457 276.9704 15.06412061187221
STARLINK-1624           
1 46130U 20057P   24002.92559438  .00001645  00000+0  12926-3 0  9999
2 46130  53.0543 253.4320 0001368  97.1065 263.0080 15.06407695187199
STARLINK-1625           
1 46131U 20057Q   24003.00484423  .00007510  00000+0  52227-3 0  9996
2 46131  53.0540 273.0796 0001330  83.3394 276.7746 15.06418146186926
STARLINK-1630           
1 46132U 20057R   24003.10988331  .00009983  00000+0  68770-3 0  9991
2 46132  53.0538 292.6076 0001267  96.5223 263.5911 15.06425260186662
STARLINK-1637           
1 46133U 20057S   24003.10988989  .00003804  00000+0  27401-3 0  9993
2 46133  53.0521 252.6028 0001558  86.1963 273.9204 15.06413100187220
STARLINK-1639           
1 46135U 20057U   24003.06196643  .00004117  00000+0  29499-3 0  9995
2 46135  53.0528 252.8220 0001364  94.7306 265.3839 15.06417933187212
STARLINK-1643           
1 46136U 20057V   24002.91546727  .00006361  00000+0  44531-3 0  9998
2 46136  53.0538 283.5184 0001399  90.5001 269.6148 15.06419426186115
STARLINK-1586           
1 46137U 20057W   24002.93112497  .00008052  00000+0  55865-3 0  9995
2 46137  53.0524 273.4062 0001142 105.3092 254.8023 15.06411439186254
STARLINK-1590           
1 46138U 20057X   24002.19830204  .00019944  00000+0  13411-2 0  9999
2 46138  53.0540 296.6884 0001742 116.8399 243.2769 15.06755364186522
STARLINK-1594           
1 46140U 20057Z   24002.95508360  .00005450  00000+0  38434-3 0  9991
2 46140  53.0531 253.3022 0001533  78.8454 281.2707 15.06417168187203
STARLINK-1596           
1 46141U 20057AA  24003.06565342  .00003982  00000+0  28595-3 0  9993
2 46141  53.0534 252.8000 0001381  98.8457 261.2688 15.06416721187214
